start=new Date('2022-04-10T00:00:00.000Z').valueOf();
sats=[{"MEAN_ANOMALY":"307.9826","FILE":"3395351","ELEMENT_SET_NO":"999","MEAN_MOTION":"15.06395584","RA_OF_ASC_NODE":"115.8624","OBJECT_ID":"2020-070Q","SEMIMAJOR_AXIS":"6925.362","CLASSIFICATION_TYPE":"U","MEAN_MOTION_DDOT":"0.0000000000000","EPOCH":"2022-04-09T17:59:08.892672","REV_AT_EPOCH":"8397","APOAPSIS":"548.530","DECAY_DATE":null,"GP_ID":"200862503","ECCENTRICITY":"0.00018820","REF_FRAME":"TEME","TLE_LINE1":"1 46546U 20070Q   22099.74940848 -.00003191  00000-0 -19544-3 0  9992","INCLINATION":"53.0535","SITE":"AFETR","BSTAR":"-0.00019544000000","MEAN_ELEMENT_THEORY":"SGP4","RCS_SIZE":"LARGE","TIME_SYSTEM":"UTC","EPHEMERIS_TYPE":"0","NORAD_CAT_ID":"46546","ARG_OF_PERICENTER":"52.1333","MEAN_MOTION_DOT":"-0.00003191","OBJECT_TYPE":"PAYLOAD","PERIOD":"95.592","COUNTRY_CODE":"US","CENTER_NAME":"EARTH","TLE_LINE2":"2 46546  53.0535 115.8624 0001882  52.1333 307.9826 15.06395584 83979","PERIAPSIS":"545.924","LAUNCH_DATE":"2020-10-06","OBJECT_NAME":"STARLINK-1697"},{"ARG_OF_PERICENTER":"57.4108","MEAN_MOTION_DOT":"0.00003418","OBJECT_TYPE":"PAYLOAD","SITE":"AFETR","BSTAR":"0.00024820000000","MEAN_ELEMENT_THEORY":"SGP4","TIME_SYSTEM":"UTC","RCS_SIZE":"LARGE","EPHEMERIS_TYPE":"0","NORAD_CAT_ID":"46547","CENTER_NAME":"EARTH","PERIAPSIS":"545.822","TLE_LINE2":"2 46547  53.0530 115.7339 0001984  57.4108 302.7073 15.06405663 83986","LAUNCH_DATE":"2020-10-06","OBJECT_NAME":"STARLINK-1698","PERIOD":"95.592","COUNTRY_CODE":"US","SEMIMAJOR_AXIS":"6925.331","MEAN_MOTION_DDOT":"0.0000000000000","CLASSIFICATION_TYPE":"U","FILE":"3395351","ELEMENT_SET_NO":"999","MEAN_ANOMALY":"302.7073","MEAN_MOTION":"15.06405663","OBJECT_ID":"2020-070R","RA_OF_ASC_NODE":"115.7339","DECAY_DATE":null,"GP_ID":"200863245","ECCENTRICITY":"0.00019840","INCLINATION":"53.0530","TLE_LINE1":"1 46547U 20070R   22099.77889461  .00003418  00000-0  24820-3 0  9992","REF_FRAME":"TEME","EPOCH":"2022-04-09T18:41:36.494304","REV_AT_EPOCH":"8398","APOAPSIS":"548.570"},{"OBJECT_TYPE":"PAYLOAD","MEAN_MOTION_DOT":"-0.00001519","ARG_OF_PERICENTER":"56.1929","NORAD_CAT_ID":"46548","EPHEMERIS_TYPE":"0","RCS_SIZE":"LARGE","TIME_SYSTEM":"UTC","MEAN_ELEMENT_THEORY":"SGP4","BSTAR":"-0.00008307700000","SITE":"AFETR","OBJECT_NAME":"STARLINK-1699","LAUNCH_DATE":"2020-10-06","TLE_LINE2":"2 46548  53.0529 117.7757 0001654  56.1929 303.9217 15.06399168 83910","PERIAPSIS":"546.071","CENTER_NAME":"EARTH","COUNTRY_CODE":"US","PERIOD":"95.592","MEAN_MOTION_DDOT":"0.0000000000000","CLASSIFICATION_TYPE":"U","SEMIMAJOR_AXIS":"6925.351","RA_OF_ASC_NODE":"117.7757","OBJECT_ID":"2020-070S","FILE":"3394949","ELEMENT_SET_NO":"999","MEAN_ANOMALY":"303.9217","MEAN_MOTION":"15.06399168","TLE_LINE1":"1 46548U 20070S   22099.32552644 -.00001519  00000-0 -83077-4 0  9996","INCLINATION":"53.0529","REF_FRAME":"TEME","GP_ID":"200828696","ECCENTRICITY":"0.00016540","DECAY_DATE":null,"APOAPSIS":"548.362","REV_AT_EPOCH":"8391","EPOCH":"2022-04-09T07:48:45.484416"},{"EPHEMERIS_TYPE":"0","NORAD_CAT_ID":"46549","RCS_SIZE":"LARGE","TIME_SYSTEM":"UTC","MEAN_ELEMENT_THEORY":"SGP4","BSTAR":"0.00000958950000","SITE":"AFETR","OBJECT_TYPE":"PAYLOAD","MEAN_MOTION_DOT":"-0.00000139","ARG_OF_PERICENTER":"61.4028","COUNTRY_CODE":"US","PERIOD":"95.592","OBJECT_NAME":"STARLINK-1700","LAUNCH_DATE":"2020-10-06","PERIAPSIS":"546.164","TLE_LINE2":"2 46549  53.0552 116.7357 0001532  61.4028 298.7115 15.06396139 83942","CENTER_NAME":"EARTH","OBJECT_ID":"2020-070T","RA_OF_ASC_NODE":"116.7357","MEAN_MOTION":"15.06396139","FILE":"3395351","ELEMENT_SET_NO":"999","MEAN_ANOMALY":"298.7115","CLASSIFICATION_TYPE":"U","MEAN_MOTION_DDOT":"0.0000000000000","SEMIMAJOR_AXIS":"6925.360","APOAPSIS":"548.286","REV_AT_EPOCH":"8394","EPOCH":"2022-04-09T13:17:50.677728","INCLINATION":"53.0552","TLE_LINE1":"1 46549U 20070T   22099.55405877 -.00000139  00000-0  95895-5 0  9995","REF_FRAME":"TEME","GP_ID":"200862250","ECCENTRICITY":"0.00015320","DECAY_DATE":null},{"CLASSIFICATION_TYPE":"U","MEAN_MOTION_DDOT":"0.0000000000000","SEMIMAJOR_AXIS":"6925.370","RA_OF_ASC_NODE":"115.9216","OBJECT_ID":"2020-070U","ELEMENT_SET_NO":"999","FILE":"3395351","MEAN_MOTION":"15.06393017","MEAN_ANOMALY":"309.5241","TLE_LINE1":"1 46550U 20070U   22099.73835014 -.00004133  00000-0 -25876-3 0  9996","REF_FRAME":"TEME","INCLINATION":"53.0541","GP_ID":"200862004","ECCENTRICITY":"0.00019370","DECAY_DATE":null,"APOAPSIS":"548.576","REV_AT_EPOCH":"8397","EPOCH":"2022-04-09T17:43:13.452096","OBJECT_TYPE":"PAYLOAD","MEAN_MOTION_DOT":"-0.00004133","ARG_OF_PERICENTER":"50.5919","NORAD_CAT_ID":"46550","EPHEMERIS_TYPE":"0","TIME_SYSTEM":"UTC","RCS_SIZE":"LARGE","MEAN_ELEMENT_THEORY":"SGP4","BSTAR":"-0.00025876000000","SITE":"AFETR","OBJECT_NAME":"STARLINK-1701","LAUNCH_DATE":"2020-10-06","PERIAPSIS":"545.894","TLE_LINE2":"2 46550  53.0541 115.9216 0001937  50.5919 309.5241 15.06393017 83970","CENTER_NAME":"EARTH","COUNTRY_CODE":"US","PERIOD":"95.593"},{"OBJECT_ID":"2020-070W","RA_OF_ASC_NODE":"101.0918","FILE":"3395351","MEAN_ANOMALY":"306.1051","ELEMENT_SET_NO":"999","MEAN_MOTION":"15.06400171","MEAN_MOTION_DDOT":"0.0000000000000","CLASSIFICATION_TYPE":"U","SEMIMAJOR_AXIS":"6925.348","APOAPSIS":"548.384","REV_AT_EPOCH":"8418","EPOCH":"2022-04-09T16:44:10.621824","TLE_LINE1":"1 46552U 20070W   22099.69734516 -.00000010  00000-0  18234-4 0  9998","REF_FRAME":"TEME","INCLINATION":"53.0538","GP_ID":"200862746","ECCENTRICITY":"0.00016910","DECAY_DATE":null,"NORAD_CAT_ID":"46552","EPHEMERIS_TYPE":"0","RCS_SIZE":"LARGE","TIME_SYSTEM":"UTC","MEAN_ELEMENT_THEORY":"SGP4","BSTAR":"0.00001823400000","SITE":"AFETR","OBJECT_TYPE":"PAYLOAD","MEAN_MOTION_DOT":"-0.00000010","ARG_OF_PERICENTER":"54.0094","COUNTRY_CODE":"US","PERIOD":"95.592","OBJECT_NAME":"STARLINK-1649","LAUNCH_DATE":"2020-10-06","TLE_LINE2":"2 46552  53.0538 101.0918 0001691  54.0094 306.1051 15.06400171 84189","PERIAPSIS":"546.042","CENTER_NAME":"EARTH"},{"OBJECT_TYPE":"PAYLOAD","MEAN_MOTION_DOT":"-0.00000152","ARG_OF_PERICENTER":"57.4535","EPHEMERIS_TYPE":"0","NORAD_CAT_ID":"46553","TIME_SYSTEM":"UTC","RCS_SIZE":"LARGE","MEAN_ELEMENT_THEORY":"SGP4","BSTAR":"0.00000870730000","SITE":"AFETR","OBJECT_NAME":"STARLINK-1664","LAUNCH_DATE":"2020-10-06","PERIAPSIS":"546.109","TLE_LINE2":"2 46553  53.0541  86.2751 0001632  57.4535 302.6611 15.06391648 84388","CENTER_NAME":"EARTH","COUNTRY_CODE":"US","PERIOD":"95.593","MEAN_MOTION_DDOT":"0.0000000000000","CLASSIFICATION_TYPE":"U","SEMIMAJOR_AXIS":"6925.374","OBJECT_ID":"2020-070X","RA_OF_ASC_NODE":"86.2751","FILE":"3395351","MEAN_ANOMALY":"302.6611","ELEMENT_SET_NO":"999","MEAN_MOTION":"15.06391648","REF_FRAME":"TEME","TLE_LINE1":"1 46553U 20070X   22099.65907863 -.00000152  00000-0  87073-5 0  9997","INCLINATION":"53.0541","GP_ID":"200862223","ECCENTRICITY":"0.00016320","DECAY_DATE":null,"APOAPSIS":"548.369","REV_AT_EPOCH":"8438","EPOCH":"2022-04-09T15:49:04.393632"},{"PERIOD":"95.592","COUNTRY_CODE":"US","CENTER_NAME":"EARTH","PERIAPSIS":"546.043","TLE_LINE2":"2 46554  53.0534 101.0289 0001709  67.3648 292.7522 15.06395765 84185","LAUNCH_DATE":"2020-10-06","OBJECT_NAME":"STARLINK-1671","SITE":"AFETR","BSTAR":"0.00001947500000","MEAN_ELEMENT_THEORY":"SGP4","TIME_SYSTEM":"UTC","RCS_SIZE":"LARGE","EPHEMERIS_TYPE":"0","NORAD_CAT_ID":"46554","ARG_OF_PERICENTER":"67.3648","MEAN_MOTION_DOT":"0.00000008","OBJECT_TYPE":"PAYLOAD","EPOCH":"2022-04-09T17:05:24.323712","REV_AT_EPOCH":"8418","APOAPSIS":"548.410","DECAY_DATE":null,"ECCENTRICITY":"0.00017090","GP_ID":"200861751","TLE_LINE1":"1 46554U 20070Y   22099.71208708  .00000008  00000-0  19475-4 0  9996","INCLINATION":"53.0534","REF_FRAME":"TEME","MEAN_ANOMALY":"292.7522","FILE":"3395351","ELEMENT_SET_NO":"999","MEAN_MOTION":"15.06395765","OBJECT_ID":"2020-070Y","RA_OF_ASC_NODE":"101.0289","SEMIMAJOR_AXIS":"6925.362","CLASSIFICATION_TYPE":"U","MEAN_MOTION_DDOT":"0.0000000000000"},{"CLASSIFICATION_TYPE":"U","MEAN_MOTION_DDOT":"0.0000000000000","SEMIMAJOR_AXIS":"6925.381","FILE":"3395351","MEAN_MOTION":"15.06389339","ELEMENT_SET_NO":"999","MEAN_ANOMALY":"302.6375","RA_OF_ASC_NODE":"115.7744","OBJECT_ID":"2020-070AA","INCLINATION":"53.0516","TLE_LINE1":"1 46556U 20070AA  22099.77152308 -.00001445  00000-0 -78130-4 0  9999","REF_FRAME":"TEME","DECAY_DATE":null,"GP_ID":"200862504","ECCENTRICITY":"0.00016670","APOAPSIS":"548.401","EPOCH":"2022-04-09T18:30:59.594112","REV_AT_EPOCH":"8398","MEAN_MOTION_DOT":"-0.00001445","OBJECT_TYPE":"PAYLOAD","ARG_OF_PERICENTER":"57.4775","RCS_SIZE":"LARGE","TIME_SYSTEM":"UTC","EPHEMERIS_TYPE":"0","NORAD_CAT_ID":"46556","SITE":"AFETR","BSTAR":"-0.00007813000000","MEAN_ELEMENT_THEORY":"SGP4","OBJECT_NAME":"STARLINK-1676","CENTER_NAME":"EARTH","TLE_LINE2":"2 46556  53.0516 115.7744 0001667  57.4775 302.6375 15.06389339 83983","PERIAPSIS":"546.092","LAUNCH_DATE":"2020-10-06","COUNTRY_CODE":"US","PERIOD":"95.593"},{"ARG_OF_PERICENTER":"59.6054","OBJECT_TYPE":"PAYLOAD","MEAN_MOTION_DOT":"-0.00002776","SITE":"AFETR","MEAN_ELEMENT_THEORY":"SGP4","BSTAR":"-0.00016757000000","TIME_SYSTEM":"UTC","RCS_SIZE":"LARGE","NORAD_CAT_ID":"46557","EPHEMERIS_TYPE":"0","PERIAPSIS":"546.153","TLE_LINE2":"2 46557  53.0542 102.0678 0001552  59.6054 300.5088 15.06395439 84162","CENTER_NAME":"EARTH","LAUNCH_DATE":"2020-10-06","OBJECT_NAME":"STARLINK-1679","PERIOD":"95.592","COUNTRY_CODE":"US","SEMIMAJOR_AXIS":"6925.363","MEAN_MOTION_DDOT":"0.0000000000000","CLASSIFICATION_TYPE":"U","FILE":"3395257","ELEMENT_SET_NO":"999","MEAN_ANOMALY":"300.5088","MEAN_MOTION":"15.06395439","RA_OF_ASC_NODE":"102.0678","OBJECT_ID":"2020-070AB","DECAY_DATE":null,"ECCENTRICITY":"0.00015520","GP_ID":"200839119","TLE_LINE1":"1 46557U 20070AB  22099.48355700 -.00002776  00000-0 -16757-3 0  9993","REF_FRAME":"TEME","INCLINATION":"53.0542","EPOCH":"2022-04-09T11:36:19.324800","REV_AT_EPOCH":"8416","APOAPSIS":"548.302"}];
